[{"OBJECT_NAME":"STARLINK-3960","OBJECT_ID":"2022-053D","EPOCH":"2026-03-09T22:56:54.295872","MEAN_MOTION":15.08836522,"ECCENTRICITY":0.00012698,"INCLINATION":53.2175,"RA_OF_ASC_NODE":152.8769,"ARG_OF_PERICENTER":85.1783,"MEAN_ANOMALY":274.9354,"EPHEMERIS_TYPE":0,"CLASSIFICATION_TYPE":"U","NORAD_CAT_ID":52659,"ELEMENT_SET_NO":999,"REV_AT_EPOCH":21126,"BSTAR":2.3668795e-5,"MEAN_MOTION_DOT":8.9e-7,"MEAN_MOTION_DDOT":0},{"OBJECT_NAME":"FENGYUN 1C DEB","OBJECT_ID":"1999-025EMJ","EPOCH":"2026-03-09T03:39:09.279936","MEAN_MOTION":15.01174269,"ECCENTRICITY":0.00472088,"INCLINATION":98.7318,"RA_OF_ASC_NODE":38.98,"ARG_OF_PERICENTER":180.721,"MEAN_ANOMALY":242.109,"EPHEMERIS_TYPE":0,"CLASSIFICATION_TYPE":"U","NORAD_CAT_ID":37717,"ELEMENT_SET_NO":999,"REV_AT_EPOCH":90691,"BSTAR":0.0034859906,"MEAN_MOTION_DOT":0.00045969,"MEAN_MOTION_DDOT":0}]
